OBJECT_NAME,OBJECT_ID,EPOCH,MEAN_MOTION,ECCENTRICITY,INCLINATION,RA_OF_ASC_NODE,ARG_OF_PERICENTER,MEAN_ANOMALY,EPHEMERIS_TYPE,CLASSIFICATION_TYPE,NORAD_CAT_ID,ELEMENT_SET_NO,REV_AT_EPOCH,BSTAR,MEAN_MOTION_DOT,MEAN_MOTION_DDOT
STARLINK-36057,2025-283G,2026-07-04T18:06:38.930400,15.34439170,.0001736,53.1577,199.2589,88.9773,271.1428,0,U,66884,999,3378,.15666642E-2,.52997E-3,0
STARLINK-35954,2025-283H,2026-07-04T17:48:27.741600,15.34434945,.0000667,53.1577,199.1813,97.1724,262.9354,0,U,66885,999,3378,.12264091E-2,.41335E-3,0
STARLINK-35900,2025-283J,2026-07-04T17:36:20.097216,15.34432617,.00027879,53.1580,199.1267,84.1982,275.9339,0,U,66886,999,3378,.76747866E-3,.25671E-3,0
STARLINK-35925,2025-283K,2026-07-04T18:03:37.103328,15.34426360,.00009754,53.1579,199.2446,79.3412,280.7700,0,U,66887,999,3378,.12034708E-2,.40539E-3,0
STARLINK-35919,2025-283L,2026-07-04T18:21:49.771296,15.34385113,.000078,53.1595,199.3217,69.3660,290.7427,0,U,66888,999,3378,.13087059E-2,.4408E-3,0
STARLINK-35852,2025-283M,2026-07-04T17:33:19.193760,15.34435251,.00014453,53.1571,199.1133,82.6866,277.4301,0,U,66889,999,3378,.15864529E-2,.53669E-3,0
STARLINK-35885,2025-283N,2026-07-04T17:51:29.649024,15.34447625,.00003325,53.1578,199.1914,122.9634,237.1400,0,U,66890,999,3378,.1713187E-2,.58044E-3,0
STARLINK-35855,2025-283P,2026-07-04T18:18:45.744480,15.34451189,.00009798,53.1587,199.3082,79.1747,280.9366,0,U,66891,999,3378,.18972127E-2,.64381E-3,0
STARLINK-35883,2025-283Q,2026-07-04T07:56:51.190656,15.30213539,.00011779,53.1572,202.2979,87.2048,272.9088,0,U,66892,999,3370,.12186632E-2,.35924E-3,0
STARLINK-36033,2025-283R,2026-07-04T18:21:57.547296,15.30225596,.00020499,53.1587,200.7394,79.3121,280.8111,0,U,66893,999,3376,.16937704E-2,.50186E-3,0
STARLINK-35718,2025-283S,2026-07-04T07:47:45.803616,15.30220882,.00012041,53.1574,202.2562,91.7512,268.3627,0,U,66894,999,3370,.76664023E-3,.2243E-3,0
STARLINK-35971,2025-283T,2026-07-04T01:52:20.494272,15.34406343,.00018118,53.1570,202.1466,100.8973,259.2233,0,U,66895,999,3368,.83669542E-3,.28004E-3,0
STARLINK-35791,2025-283U,2026-07-04T18:30:54.509472,15.30213762,.00018031,53.1591,200.0651,83.5677,276.5529,0,U,66896,999,3377,.11367927E-2,.33476E-3,0
STARLINK-36079,2025-283V,2026-07-04T18:15:43.813728,15.34454392,.00006105,53.1586,199.2953,93.2111,266.8962,0,U,66897,999,3377,.19728354E-2,.66992E-3,0
STARLINK-36065,2025-283W,2026-07-04T07:43:17.578272,15.34393728,.00009143,53.1586,200.8237,64.5886,295.5211,0,U,66898,999,3372,.77127154E-3,.25767E-3,0
STARLINK-36064,2025-283X,2026-07-04T07:52:22.172160,15.34414916,.00007999,53.1571,200.8618,83.6648,276.4446,0,U,66899,999,3372,.13120082E-2,.44235E-3,0
STARLINK-36074,2025-283Y,2026-07-04T17:45:26.226432,15.34436437,.00014044,53.1575,199.1641,84.3890,275.7272,0,U,66900,999,3378,.12613512E-2,.42532E-3,0
STARLINK-36043,2025-283Z,2026-07-04T07:49:20.499744,15.34418576,.00009867,53.1572,200.8477,82.7926,277.3188,0,U,66901,999,3372,.13987423E-2,.47208E-3,0
STARLINK-35983,2025-283AA,2026-07-04T17:42:25.018848,15.34426445,.0001401,53.1568,199.1497,83.8255,276.2907,0,U,66902,999,3378,.11661215E-2,.39263E-3,0
STARLINK-36077,2025-283AB,2026-07-04T18:00:34.007904,15.34450057,.00019453,53.1592,199.2267,255.8596,104.2191,0,U,66903,999,3378,.13371683E-2,.45147E-3,0
STARLINK-36059,2025-283AC,2026-07-04T18:36:56.934144,15.34405768,.00020487,53.1582,199.3837,88.8863,271.2375,0,U,66904,999,3378,.19330398E-2,.6552E-3,0
STARLINK-36075,2025-283AD,2026-07-04T18:20:25.780992,15.30247716,.00000677,53.1597,200.7289,141.9518,218.1488,0,U,66905,999,3376,.11547495E-2,.34049E-3,0
DUPLEX,1998-067XS,2026-07-04T10:34:55.972704,15.63861705,.00025943,51.6250,202.2617,297.7870,62.2861,0,U,66906,999,3335,.57421411E-3,.54823E-3,0
2025-284A,2025-284A,2026-07-04T15:39:48.621312,13.97346281,.00115669,80.4060,271.1183,186.2692,173.8326,0,U,66913,999,2992,.13546391E-3,.199E-5,0
2025-284B,2025-284B,2026-07-04T15:51:04.125888,13.97326887,.001179,80.3983,270.9671,184.2939,175.8123,0,U,66914,999,2992,.11747958E-3,.174E-5,0
HULIANWANG DIGUI-105,2025-285A,2026-07-04T16:37:48.698400,13.29322273,.00010415,50.0051,83.4371,354.8093,5.2768,0,U,66915,999,2838,.1142963E-3,-.71E-6,0
HULIANWANG DIGUI-106,2025-285B,2026-07-04T11:00:56.728224,13.29322678,.00010651,50.0066,84.2221,353.0629,7.0228,0,U,66916,999,2835,.99950633E-4,-.78E-6,0
HULIANWANG DIGUI-107,2025-285C,2026-07-04T18:01:47.410752,13.29325685,.00010228,50.0032,83.0407,357.2115,2.8752,0,U,66917,999,2839,.11303835E-3,-.72E-6,0
HULIANWANG DIGUI-108,2025-285D,2026-07-04T17:49:44.532192,13.29325544,.00010359,50.0054,83.0339,358.0424,2.0444,0,U,66918,999,2839,.1110185E-3,-.73E-6,0
HULIANWANG DIGUI-109,2025-285E,2026-07-04T17:37:26.337504,13.29316229,.00009491,50.0074,83.0318,7.2519,352.8366,0,U,66919,999,2840,.11407487E-3,-.71E-6,0
