STARLINK-36057          
1 66884U 25283G   26185.75461725  .00052997  00000+0  15667-2 0  9999
2 66884  53.1577 199.2589 0001736  88.9773 271.1428 15.34439170 33787
STARLINK-35954          
1 66885U 25283H   26185.74198775  .00041335  00000+0  12264-2 0  9995
2 66885  53.1577 199.1813 0000667  97.1724 262.9354 15.34434945 33788
STARLINK-35900          
1 66886U 25283J   26185.73356594  .00025671  00000+0  76748-3 0  9993
2 66886  53.1580 199.1267 0002787  84.1982 275.9339 15.34432617 33784
STARLINK-35925          
1 66887U 25283K   26185.75251277  .00040539  00000+0  12035-2 0  9996
2 66887  53.1579 199.2446 0000975  79.3412 280.7700 15.34426360 33788
STARLINK-35919          
1 66888U 25283L   26185.76515939  .00044080  00000+0  13087-2 0  9999
2 66888  53.1595 199.3217 0000780  69.3660 290.7427 15.34385113 33789
STARLINK-35852          
1 66889U 25283M   26185.73147215  .00053669  00000+0  15865-2 0  9994
2 66889  53.1571 199.1133 0001445  82.6866 277.4301 15.34435251 33786
STARLINK-35885          
1 66890U 25283N   26185.74409316  .00058044  00000+0  17132-2 0  9991
2 66890  53.1578 199.1914 0000332 122.9634 237.1400 15.34447625 33788
STARLINK-35855          
1 66891U 25283P   26185.76302945  .00064381  00000+0  18972-2 0  9998
2 66891  53.1587 199.3082 0000979  79.1747 280.9366 15.34451189 33789
STARLINK-35883          
1 66892U 25283Q   26185.33114804  .00035924  00000+0  12187-2 0  9990
2 66892  53.1572 202.2979 0001177  87.2048 272.9088 15.30213539 33703
STARLINK-36033          
1 66893U 25283R   26185.76524939  .00050186  00000+0  16938-2 0  9997
2 66893  53.1587 200.7394 0002049  79.3121 280.8111 15.30225596 33764
STARLINK-35718          
1 66894U 25283S   26185.32483569  .00022430  00000+0  76664-3 0  9997
2 66894  53.1574 202.2562 0001204  91.7512 268.3627 15.30220882 33709
STARLINK-35971          
1 66895U 25283T   26185.07801498  .00028004  00000+0  83670-3 0  9993
2 66895  53.1570 202.1466 0001811 100.8973 259.2233 15.34406343 33686
STARLINK-35791          
1 66896U 25283U   26185.77146423  .00033476  00000+0  11368-2 0  9994
2 66896  53.1591 200.0651 0001803  83.5677 276.5529 15.30213762 33779
STARLINK-36079          
1 66897U 25283V   26185.76092377  .00066992  00000+0  19728-2 0  9999
2 66897  53.1586 199.2953 0000610  93.2111 266.8962 15.34454392 33777
STARLINK-36065          
1 66898U 25283W   26185.32173123  .00025767  00000+0  77127-3 0  9994
2 66898  53.1586 200.8237 0000914  64.5886 295.5211 15.34393728 33725
STARLINK-36064          
1 66899U 25283X   26185.32803440  .00044235  00000+0  13120-2 0  9990
2 66899  53.1571 200.8618 0000799  83.6648 276.4446 15.34414916 33723
STARLINK-36074          
1 66900U 25283Y   26185.73988688  .00042532  00000+0  12614-2 0  9991
2 66900  53.1575 199.1641 0001404  84.3890 275.7272 15.34436437 33784
STARLINK-36043          
1 66901U 25283Z   26185.32593171  .00047208  00000+0  13987-2 0  9995
2 66901  53.1572 200.8477 0000986  82.7926 277.3188 15.34418576 33727
STARLINK-35983          
1 66902U 25283AA  26185.73778957  .00039263  00000+0  11661-2 0  9997
2 66902  53.1568 199.1497 0001401  83.8255 276.2907 15.34426445 33782
STARLINK-36077          
1 66903U 25283AB  26185.75039361  .00045147  00000+0  13372-2 0  9998
2 66903  53.1592 199.2267 0001945 255.8596 104.2191 15.34450057 33789
STARLINK-36059          
1 66904U 25283AC  26185.77565896  .00065520  00000+0  19330-2 0  9995
2 66904  53.1582 199.3837 0002048  88.8863 271.2375 15.34405768 33787
STARLINK-36075          
1 66905U 25283AD  26185.76418728  .00034049  00000+0  11547-2 0  9990
2 66905  53.1597 200.7289 0000067 141.9518 218.1488 15.30247716 33765
DUPLEX                  
1 66906U 98067XS  26185.44092561  .00054823  00000+0  57421-3 0  9993
2 66906  51.6250 202.2617 0002594 297.7870  62.2861 15.63861705 33359
2025-284A               
1 66913U 25284A   26185.65264608  .00000199  00000+0  13546-3 0  9995
2 66913  80.4060 271.1183 0011566 186.2692 173.8326 13.97346281 29927
2025-284B               
1 66914U 25284B   26185.66046442  .00000174  00000+0  11748-3 0  9996
2 66914  80.3983 270.9671 0011790 184.2939 175.8123 13.97326887 29928
HULIANWANG DIGUI-105    
1 66915U 25285A   26185.69292475 -.00000071  00000+0  11430-3 0  9995
2 66915  50.0051  83.4371 0001041 354.8093   5.2768 13.29322273 28387
HULIANWANG DIGUI-106    
1 66916U 25285B   26185.45898991 -.00000078  00000+0  99951-4 0  9997
2 66916  50.0066  84.2221 0001065 353.0629   7.0228 13.29322678 28356
HULIANWANG DIGUI-107    
1 66917U 25285C   26185.75124318 -.00000072  00000+0  11304-3 0  9995
2 66917  50.0032  83.0407 0001022 357.2115   2.8752 13.29325685 28392
HULIANWANG DIGUI-108    
1 66918U 25285D   26185.74287653 -.00000073  00000+0  11102-3 0  9994
2 66918  50.0054  83.0339 0001035 358.0424   2.0444 13.29325544 28391
HULIANWANG DIGUI-109    
1 66919U 25285E   26185.73433261 -.00000071  00000+0  11407-3 0  9998
2 66919  50.0074  83.0318 0000949   7.2519 352.8366 13.29316229 28403
